[
    {
        "Altitude(m)": 570115.1504328708,
        "Argument of Periapsis(deg)": 0.006622991110713501,
        "Eccentricity": 0.0,
        "Inclination(deg)": 53.0,
        "Latitude(deg)": -48.76471956363799,
        "Longitude(deg)": 50.46571649701691,
        "Mean Anomaly(deg)": -69.90840713242244,
        "RAAN(deg)": 209.99014336852804,
        "Satellite Name": "Starlink Shell 1 941",
        "Satellite Number": 941,
        "Semi-Major Axis(m)": 6931778.249405717,
        "Time(s)": 190
    },
    {
        "Altitude(m)": 570009.586416428,
        "Argument of Periapsis(deg)": 0.0069715695902247375,
        "Eccentricity": 0.0,
        "Inclination(deg)": 53.0,
        "Latitude(deg)": -48.502477854020334,
        "Longitude(deg)": 51.28058643007202,
        "Mean Anomaly(deg)": -69.28157592886566,
        "RAAN(deg)": 209.98962459845055,
        "Satellite Name": "Starlink Shell 1 941",
        "Satellite Number": 941,
        "Semi-Major Axis(m)": 6931778.249405717,
        "Time(s)": 200
    },
    {
        "Altitude(m)": 569901.2709199076,
        "Argument of Periapsis(deg)": 0.007320148069735974,
        "Eccentricity": 0.0,
        "Inclination(deg)": 53.0,
        "Latitude(deg)": -48.23392047701438,
        "Longitude(deg)": 52.08658262949943,
        "Mean Anomaly(deg)": -68.65474472530902,
        "RAAN(deg)": 209.98910582837308,
        "Satellite Name": "Starlink Shell 1 941",
        "Satellite Number": 941,
        "Semi-Major Axis(m)": 6931778.249405717,
        "Time(s)": 210
    },
    {
        "Altitude(m)": 569790.2468708206,
        "Argument of Periapsis(deg)": 0.007668726549247212,
        "Eccentricity": 0.0,
        "Inclination(deg)": 53.0,
        "Latitude(deg)": -47.95917037478619,
        "Longitude(deg)": 52.88367554216586,
        "Mean Anomaly(deg)": -68.02791352175225,
        "RAAN(deg)": 209.98858705829562,
        "Satellite Name": "Starlink Shell 1 941",
        "Satellite Number": 941,
        "Semi-Major Axis(m)": 6931778.249405717,
        "Time(s)": 220
    },
    {
        "Altitude(m)": 569676.5582508236,
        "Argument of Periapsis(deg)": 0.00801730502875845,
        "Eccentricity": 0.0,
        "Inclination(deg)": 53.0,
        "Latitude(deg)": -47.67835013898929,
        "Longitude(deg)": 53.671847303432536,
        "Mean Anomaly(deg)": -67.40108231819558,
        "RAAN(deg)": 209.98806828821813,
        "Satellite Name": "Starlink Shell 1 941",
        "Satellite Number": 941,
        "Semi-Major Axis(m)": 6931778.249405717,
        "Time(s)": 230
    },
    {
        "Altitude(m)": 569560.2500764992,
        "Argument of Periapsis(deg)": 0.008365883508269684,
        "Eccentricity": 0.0,
        "Inclination(deg)": 53.0,
        "Latitude(deg)": -47.391581848319426,
        "Longitude(deg)": 54.451091701075036,
        "Mean Anomaly(deg)": -66.77425111463883,
        "RAAN(deg)": 209.98754951814067,
        "Satellite Name": "Starlink Shell 1 941",
        "Satellite Number": 941,
        "Semi-Major Axis(m)": 6931778.249405717,
        "Time(s)": 240
    },
    {
        "Altitude(m)": 569441.3683796825,
        "Argument of Periapsis(deg)": 0.008714461987780921,
        "Eccentricity": 0.0,
        "Inclination(deg)": 53.0,
        "Latitude(deg)": -47.09898691703124,
        "Longitude(deg)": 55.22141262045661,
        "Mean Anomaly(deg)": -66.14741991108208,
        "RAAN(deg)": 209.98703074806323,
        "Satellite Name": "Starlink Shell 1 941",
        "Satellite Number": 941,
        "Semi-Major Axis(m)": 6931778.249405717,
        "Time(s)": 250
    },
    {
        "Altitude(m)": 569319.9601873506,
        "Argument of Periapsis(deg)": 0.009063040467292158,
        "Eccentricity": 0.0,
        "Inclination(deg)": 53.0,
        "Latitude(deg)": -46.800685954297826,
        "Longitude(deg)": 55.98282400011375,
        "Mean Anomaly(deg)": -65.52058870752542,
        "RAAN(deg)": 209.98651197798574,
        "Satellite Name": "Starlink Shell 1 941",
        "Satellite Number": 941,
        "Semi-Major Axis(m)": 6931778.249405717,
        "Time(s)": 260
    },
    {
        "Altitude(m)": 569196.0735010386,
        "Argument of Periapsis(deg)": 0.009411618946803396,
        "Eccentricity": 0.0,
        "Inclination(deg)": 53.0,
        "Latitude(deg)": -46.496798634243966,
        "Longitude(deg)": 56.73534978800724,
        "Mean Anomaly(deg)": -64.89375750396874,
        "RAAN(deg)": 209.98599320790828,
        "Satellite Name": "Starlink Shell 1 941",
        "Satellite Number": 941,
        "Semi-Major Axis(m)": 6931778.249405717,
        "Time(s)": 270
    },
    {
        "Altitude(m)": 569069.7572758304,
        "Argument of Periapsis(deg)": 0.009760197426314633,
        "Eccentricity": 0.0,
        "Inclination(deg)": 53.0,
        "Latitude(deg)": -46.18744357643096,
        "Longitude(deg)": 57.47902238840485,
        "Mean Anomaly(deg)": -64.266926300412,
        "RAAN(deg)": 209.9854744378308,
        "Satellite Name": "Starlink Shell 1 941",
        "Satellite Number": 941,
        "Semi-Major Axis(m)": 6931778.249405717,
        "Time(s)": 280
    },
    {
        "Altitude(m)": 568941.0613989227,
        "Argument of Periapsis(deg)": 0.01010877590582587,
        "Eccentricity": 0.0,
        "Inclination(deg)": 53.0,
        "Latitude(deg)": -45.872738236522686,
        "Longitude(deg)": 58.21388262768948,
        "Mean Anomaly(deg)": -63.64009509685522,
        "RAAN(deg)": 209.98495566775327,
        "Satellite Name": "Starlink Shell 1 941",
        "Satellite Number": 941,
        "Semi-Major Axis(m)": 6931778.249405717,
        "Time(s)": 290
    },
    {
        "Altitude(m)": 568810.0366677574,
        "Argument of Periapsis(deg)": 0.010457354385337106,
        "Eccentricity": 0.0,
        "Inclination(deg)": 53.0,
        "Latitude(deg)": -45.55279880682912,
        "Longitude(deg)": 58.939979728492645,
        "Mean Anomaly(deg)": -63.01326389329857,
        "RAAN(deg)": 209.98443689767583,
        "Satellite Name": "Starlink Shell 1 941",
        "Satellite Number": 941,
        "Semi-Major Axis(m)": 6931778.249405717,
        "Time(s)": 300
    },
    {
        "Altitude(m)": 568676.7347677418,
        "Argument of Periapsis(deg)": 0.010805932864848343,
        "Eccentricity": 0.0,
        "Inclination(deg)": 53.0,
        "Latitude(deg)": -45.227740126392725,
        "Longitude(deg)": 59.65736978128136,
        "Mean Anomaly(deg)": -62.38643268974184,
        "RAAN(deg)": 209.98391812759837,
        "Satellite Name": "Starlink Shell 1 941",
        "Satellite Number": 941,
        "Semi-Major Axis(m)": 6931778.249405717,
        "Time(s)": 310
    },
    {
        "Altitude(m)": 568541.2082495802,
        "Argument of Periapsis(deg)": 0.01115451134435958,
        "Eccentricity": 0.0,
        "Inclination(deg)": 53.0,
        "Latitude(deg)": -44.89767560025256,
        "Longitude(deg)": 60.366115740875834,
        "Mean Anomaly(deg)": -61.75960148618514,
        "RAAN(deg)": 209.98339935752088,
        "Satellite Name": "Starlink Shell 1 941",
        "Satellite Number": 941,
        "Semi-Major Axis(m)": 6931778.249405717,
        "Time(s)": 320
    },
    {
        "Altitude(m)": 568403.5105062036,
        "Argument of Periapsis(deg)": 0.011503089823870818,
        "Eccentricity": 0.0,
        "Inclination(deg)": 53.0,
        "Latitude(deg)": -44.56271712750484,
        "Longitude(deg)": 61.066287436519005,
        "Mean Anomaly(deg)": -61.13277028262839,
        "RAAN(deg)": 209.98288058744342,
        "Satellite Name": "Starlink Shell 1 941",
        "Satellite Number": 941,
        "Semi-Major Axis(m)": 6931778.249405717,
        "Time(s)": 330
    },
    {
        "Altitude(m)": 568263.6957492927,
        "Argument of Periapsis(deg)": 0.011851668303382053,
        "Eccentricity": 0.0,
        "Inclination(deg)": 53.0,
        "Latitude(deg)": -44.22297503776551,
        "Longitude(deg)": 61.757960083877094,
        "Mean Anomaly(deg)": -60.505939079071645,
        "RAAN(deg)": 209.98236181736596,
        "Satellite Name": "Starlink Shell 1 941",
        "Satellite Number": 941,
        "Semi-Major Axis(m)": 6931778.249405717,
        "Time(s)": 340
    },
    {
        "Altitude(m)": 568121.8189854585,
        "Argument of Periapsis(deg)": 0.012200246782893292,
        "Eccentricity": 0.0,
        "Inclination(deg)": 53.0,
        "Latitude(deg)": -43.87855803562253,
        "Longitude(deg)": 62.44121432574903,
        "Mean Anomaly(deg)": -59.879107875514975,
        "RAAN(deg)": 209.98184304728846,
        "Satellite Name": "Starlink Shell 1 941",
        "Satellite Number": 941,
        "Semi-Major Axis(m)": 6931778.249405717,
        "Time(s)": 350
    },
    {
        "Altitude(m)": 567977.9359920541,
        "Argument of Periapsis(deg)": 0.012548825262404526,
        "Eccentricity": 0.0,
        "Inclination(deg)": 53.0,
        "Latitude(deg)": -43.529573152665854,
        "Longitude(deg)": 63.11613628944089,
        "Mean Anomaly(deg)": -59.25227667195823,
        "RAAN(deg)": 209.981324277211,
        "Satellite Name": "Starlink Shell 1 941",
        "Satellite Number": 941,
        "Semi-Major Axis(m)": 6931778.249405717,
        "Time(s)": 360
    },
    {
        "Altitude(m)": 567832.103292607,
        "Argument of Periapsis(deg)": 0.012897403741915765,
        "Eccentricity": 0.0,
        "Inclination(deg)": 53.0,
        "Latitude(deg)": -43.1761257066805,
        "Longitude(deg)": 63.78281614857346,
        "Mean Anomaly(deg)": -58.62544546840156,
        "RAAN(deg)": 209.9808055071335,
        "Satellite Name": "Starlink Shell 1 941",
        "Satellite Number": 941,
        "Semi-Major Axis(m)": 6931778.249405717,
        "Time(s)": 370
    }
]